FENGYUN 1C DEB          
1 31351U 99025BRF 17346.31001654  .00000273  00000-0  19211-3 0  9998
2 31351  98.8981  21.8033 0095139 326.6364  32.8830 14.04203063548499
